COSMOS 2419 (714)       
1 28915U 05050A   17112.62763536  .00000005  00000-0  00000-0 0  9990
2 28915  65.4712  67.7250 0017430 347.5281 309.4407  2.13110281 88141
COSMOS 2425 (716)       
1 29670U 06062A   17112.64073252  .00000026  00000-0  10000-3 0  9991
2 29670  65.4892 306.7341 0022003 351.5743   8.3110  2.13104921 80340
COSMOS 2426 (717)       
1 29671U 06062B   17112.74709738  .00000026  00000-0  10000-3 0  9998
2 29671  65.5065 306.8194 0016940 157.4398 142.7764  2.13102937 80357
COSMOS 2424 (715)       
1 29672U 06062C   17112.64091656  .00000026  00000-0  10000-3 0  9991
2 29672  65.4906 306.7459 0016385 155.9139 238.2768  2.13102163 80359
COSMOS 2433 (720)       
1 32275U 07052A   17112.51915634  .00000005  00000-0  10000-3 0  9998
2 32275  65.4849  67.5027 0004529 291.6160 167.1679  2.13104905 73865
COSMOS 2432 (719)       
1 32276U 07052B   17112.60392738  .00000004  00000-0  10000-3 0  9992
2 32276  65.4984  67.5704 0013987 332.1149 144.6901  2.13104088 73864
COSMOS 2434 (721)       
1 32393U 07065A   17112.57560359  .00000026  00000-0  00000-0 0  9998
2 32393  65.1045 305.9125 0005782  93.1212 298.8323  2.13102868 72575
COSMOS 2436 (723)       
1 32395U 07065C   17112.65099549  .00000026  00000-0  10000-3 0  9991
2 32395  65.1136 305.9557 0016173   7.3566 130.8445  2.13104272 72506
COSMOS 2443 (725)       
1 33379U 08046B   17112.89216061  .00000001  00000-0  00000-0 0  9999
2 33379  65.4155  66.8793 0015713 187.6580  98.6424  2.13101846 66724
COSMOS 2456 (730)       
1 36111U 09070A   17112.62521213  .00000035  00000-0  00000-0 0  9990
2 36111  64.1780 185.4755 0004884 308.9975 291.9112  2.13102848 57231
COSMOS 2457 (733)       
1 36112U 09070B   17112.64931668  .00000035  00000-0  00000-0 0  9992
2 36112  64.1603 185.3958 0006335 174.8895 213.3291  2.13101503 57248
COSMOS 2458 (734)       
1 36113U 09070C   17112.65294535  .00000035  00000-0  10000-3 0  9993
2 36113  64.1660 185.4034 0001485 340.4111  98.4970  2.13102089 57247
COSMOS 2459 (731)       
1 36400U 10007A   17112.58734873  .00000002  00000-0  10000-3 0  9994
2 36400  65.3946  66.6135 0029750 349.5181  24.1151  2.13102284 55590
COSMOS 2461 (735)       
1 36401U 10007B   17112.79281688  .00000001  00000-0  10000-3 0  9998
2 36401  65.3874  66.5857 0006091  44.0246  37.8273  2.13102276 55590
COSMOS 2460 (732)       
1 36402U 10007C   17112.72040853  .00000001  00000-0  10000-3 0  9999
2 36402  65.3779  66.5619 0002739 320.4729 107.2230  2.13101740 55593
COSMOS 2465 (737)       
1 37138U 10041B   17112.65249155  .00000024  00000-0  00000-0 0  9993
2 37138  64.7031 305.9254 0034606 168.8110 326.6170  2.13107309 51666
COSMOS 2464 (736)       
1 37139U 10041C   17112.71040377  .00000024  00000-0  00000-0 0  9996
2 37139  64.7118 305.9230 0024599  16.3562 346.7509  2.13102594 51665
COSMOS 2471 (701K)      
1 37372U 11009A   17112.65551993  .00000002  00000-0  00000-0 0  9990
2 37372  65.3753  66.5106 0008487 247.1999 265.6893  2.13107678 47864
COSMOS 2474 (742)       
1 37829U 11055A   17112.82565838  .00000036  00000-0  00000-0 0  9997
2 37829  64.5029 186.0105 0008948 250.2127   4.5099  2.13101894 43234
COSMOS 2476 (744)       
1 37867U 11064A   17112.58277319  .00000033  00000-0  00000-0 0  9993
2 37867  64.4824 186.0922 0018252 244.8790 229.4372  2.13101995 42580
COSMOS 2477 (745)       
1 37868U 11064B   17112.72096307  .00000035  00000-0  00000-0 0  9998
2 37868  64.4909 186.1315 0016160 246.4099 153.0714  2.13101777 42544
COSMOS 2475 (743)       
1 37869U 11064C   17112.76751228  .00000035  00000-0  00000-0 0  9993
2 37869  64.4981 186.1202 0020982 271.8486 119.7040  2.13101853 42556
COSMOS 2485 (747)       
1 39155U 13019A   17112.51704201  .00000033  00000-0  00000-0 0  9995
2 39155  64.6521 186.1116 0018527 239.8520 229.0758  2.13101955 31054
COSMOS 2492 (754)       
1 39620U 14012A   17112.69031578  .00000001  00000-0  10000-3 0  9994
2 39620  65.2673  66.5071 0017429 329.3910 306.5071  2.13103445 24007
COSMOS 2500 (755)       
1 40001U 14032A   17112.65175257  .00000001  00000-0  00000-0 0  9996
2 40001  65.2078  66.5072 0005585 232.7248 236.7285  2.13102861 22227
COSMOS 2501 (702K)      
1 40315U 14075A   17112.77082587  .00000022  00000-0  00000-0 0  9990
2 40315  64.4374 307.2824 0013544 205.8933 161.6974  2.13098504 18630
COSMOS 2514 (751)       
1 41330U 16008A   17112.74246093  .00000001  00000-0  00000-0 0  9994
2 41330  65.0087  66.6652 0009128 233.1515 125.7424  2.13103419  9389
COSMOS 2516 (753)       
1 41554U 16032A   17112.80981723  .00000023  00000-0  00000-0 0  9996
2 41554  64.6559 307.0299 0009470 217.1775  86.2957  2.13101757  6994
